00246    8.48  0.15 K20CH 169.58528   96.19841  162.28449   15.62075  0.1093540  0.22288116   2.6941420  0 MPO593092  3331  51 1885-2021 0.40 M-v 3Ek Pan        0000    (246) Asporina           20210112
00247    8.24  0.15 K20CH  62.83343   55.38005    0.05149   24.95224  0.2453372  0.21713459   2.7414692  0 MPO593092  2086  65 1885-2021 0.51 M-v 3Ek Pan        0000    (247) Eukrate            20210111
00248   10.27  0.15 K20CH 309.63703   11.36816  246.78166    4.06082  0.0657272  0.25383779   2.4703882  0 MPO593092  3694  50 1885-2021 0.42 M-v 3Ek Pan        0000    (248) Lameia             20210113
00249   11.31  0.15 K20CH 294.54967   42.08105  334.69431    9.62113  0.2176812  0.26876969   2.3780219  0 MPO593092  2889  38 1885-2020 0.39 M-v 3Ek Pan        0000    (249) Ilse               20201004
00250    7.51  0.15 K20CH 340.41438   75.92074   23.82284   12.81819  0.1354671  0.17677987   3.1442291  0 MPO593092  2595  62 1885-2020 0.45 M-v 3Ek Pan        0000    (250) Bettina            20201220
00251    9.94  0.15 K20CH 228.15127  286.91129  155.90692   10.52969  0.0949214  0.18011798   3.1052603  0 MPO593092  3120  45 1885-2020 0.43 M-v 3Ek Pan        0000    (251) Sophia             20201110
00252    9.78  0.15 K20CH  48.23191  159.18353  201.94635   10.03503  0.0662502  0.17545727   3.1600101  0 MPO593092  3444  52 1885-2021 0.44 M-v 3Ek Pan        0000    (252) Clementina         20210112
00253   10.39  0.15 K20CH 175.76312  157.74298  179.53234    6.73973  0.2632606  0.22858276   2.6491532  0 MPO593092  4000  46 1885-2021 0.45 M-v 3Ek Pan        0000    (253) Mathilde           20210112
00254   11.76  0.15 K20CH 105.99547  233.08910   28.43561    4.51226  0.1219494  0.30322127   2.1943014  0 MPO593092  3645  42 1886-2021 0.38 M-v 3Ek Pan        0000    (254) Augusta            20210112
00255   10.38  0.15 K20CH 248.44600  155.31196   13.59403    9.46382  0.0789456  0.21666783   2.7454050  0 MPO593092  3148  57 1886-2021 0.43 M-v 3Ek Pan        0000    (255) Oppavia            20210113
00256    9.96  0.15 K20CH 294.80275   47.35501  182.90943   13.32582  0.0657307  0.18964309   3.0003923  0 MPO593092  2940  47 1886-2021 0.42 M-v 3Ek Pan        0000    (256) Walpurga           20210112
00257    9.47  0.15 K20CH 312.49292   31.54283   34.05805    3.61321  0.1116190  0.17905751   3.1175089  0 MPO593092  3514  61 1886-2021 0.46 M-v 3Ek Pan        0000    (257) Silesia            20210112
00258    8.37  0.15 K20CH 169.92526  155.61447  207.54400   14.32337  0.2045402  0.23305294   2.6151684  0 MPO593092  2996  66 1886-2021 0.49 M-v 3Ek Pan        0000    (258) Tyche              20210113
00259    7.90  0.15 K20CH  67.22417  167.32508   86.82020   10.80963  0.1298458  0.17767191   3.1336960  0 MPO593092  2791  54 1898-2021 0.46 M-v 3Ek Pan        0000    (259) Aletheia           20210105
00260    9.19  0.15 K20CH 358.07986  179.89222  164.94072    6.41878  0.1089849  0.15381778   3.4498353  0 MPO593092  3824  59 1906-2021 0.44 M-v 3Ek Pan        0000    (260) Huberta            20210112
00261    9.50  0.15 K20CH 118.37243   66.20252   96.63053    3.63548  0.0887126  0.27664679   2.3326646  0 MPO593092  3128  57 1909-2020 0.47 M-v 3Ek Pan        0000    (261) Prymno             20201106
00262   11.32  0.15 K20CH 294.55243   26.00482   38.29802    7.66808  0.2113519  0.24158046   2.5532589  0 MPO593092  2847  40 1890-2021 0.40 M-v 3Ek Pan        0000    (262) Valda              20210105
00263   10.28  0.15 K20CH 139.84372  162.64803  216.14894    1.32036  0.0780249  0.20094414   2.8868164  0 MPO593092  3463  57 1898-2021 0.47 M-v 3Ek Pan        0000    (263) Dresda             20210112
00264    8.37  0.15 K20CH 232.52201  340.39910   49.59430   10.42483  0.1371431  0.21073919   2.7966568  0 MPO593092  2655  55 1893-2020 0.46 M-v 3Ek Pan        0000    (264) Libussa            20200831
00265   11.94  0.15 K20CH 143.82443  251.58814  335.52917   25.65006  0.2674490  0.26193958   2.4191825  0 MPO593092  2779  31 1899-2021 0.41 M-v 3Ek Pan        0000    (265) Anna               20210113
00266    8.80  0.15 K20CH  27.43783  151.66681  235.84310   13.39992  0.1538767  0.20977601   2.8052108  0 MPO593092  2945  52 1891-2021 0.43 M-v 3Ek Pan        0000    (266) Aline              20210113
00267   10.28  0.15 K20CH 308.35808  196.93244   73.73850    6.00303  0.0987704  0.21332516   2.7740098  0 MPO593092  3338  45 1907-2021 0.40 M-v 3Ek Pan        0000    (267) Tirza              20210112
00268    8.42  0.15 K20CH 233.25823   68.64938  120.85574    2.44043  0.1369081  0.18128397   3.0919309  0 MPO593092  3581  58 1906-2021 0.46 M-v 3Ek Pan        0000    (268) Adorea             20210113
00269    9.73  0.15 K20CH 232.17229  119.64025  156.71287    5.47786  0.2130134  0.23282692   2.6168606  0 MPO593092  3465  53 1890-2021 0.43 M-v 3Ek Pan        0000    (269) Justitia           20210112
00270    8.83  0.15 K20CH 343.08330   80.50574  254.34097    2.36763  0.1505958  0.30231652   2.1986771  0 MPO593092  3022  62 1897-2020 0.51 M-v 3Ek Pan        0000    (270) Anahita            20201121
00271    9.91  0.15 K20CH 187.39970   57.70398  335.35030    3.53983  0.1042323  0.18942043   3.0027430  0 MPO593092  3058  57 1903-2021 0.47 M-v 3Ek Pan        0000    (271) Penthesilea        20210113
00272   10.68  0.15 K20CH 283.37304   69.20360   37.31566    4.43270  0.0283063  0.21300758   2.7767664  0 MPO593092  3204  49 1918-2021 0.42 M-v 3Ek Pan        0000    (272) Antonia            20210112
00273   10.52  0.15 K20CH 193.32490  121.10437  158.91398   20.44942  0.1600095  0.26578902   2.3957676  0 MPO593092  3231  40 1910-2021 0.37 M-v 3Ek Pan        0007    (273) Atropos            20210112
00274   10.05  0.15 K20CH 341.79945  119.88166   92.79140    3.67744  0.1190516  0.18557652   3.0440658  0 MPO593092  3473  61 1893-2021 0.46 M-v 3Ek Pan        0000    (274) Philagoria         20210112
00275    8.91  0.15 K20CH 283.47256   39.55541  134.04233    4.76403  0.1635691  0.21366331   2.7710823  0 MPO593092  3520  59 1891-2021 0.46 M-v 3Ek Pan        0000    (275) Sapientia          20210113
00276    8.65  0.15 K20CH 131.60529  265.11044  211.15094   21.61289  0.0668481  0.17916113   3.1163067  0 MPO593092  3130  52 1899-2020 0.43 M-v 3Ek Pan        0000    (276) Adelheid           20200906
00277    9.89  0.15 K20CH 228.78609  137.02123  231.24671    1.16287  0.0924503  0.20129999   2.8834132  0 MPO593092  3200  49 1899-2020 0.44 M-v 3Ek Pan        0000    (277) Elvira             20200824
00278    9.44  0.15 K20CH  29.16725  139.85731   61.99313    7.81718  0.1314637  0.21550376   2.7552826  0 MPO593092  3376  53 1890-2020 0.42 M-v 3Ek Pan        0000    (278) Paulina            20200803
00279    8.53  0.15 K20CH 256.60457   25.32104   71.90032    2.33432  0.0431673  0.11172597   4.2693978  0 MPO593092  3490  63 1890-2021 0.44 M-v 3Ek Pan        0000    (279) Thule              20210112
00280   11.03  0.15 K20CH   5.86627   89.39105    9.85849    7.43900  0.1101015  0.19525141   2.9426590  0 MPO593092  3276  39 1890-2021 0.43 M-v 3Ek Pan        0000    (280) Philia             20210113
00281   11.90  0.15 K20CH 289.40381   16.61565   31.35315    5.30141  0.1317382  0.30447258   2.1882852  0 MPO593092  3387  37 1890-2020 0.38 M-v 3Ek Pan        0000    (281) Lucretia           20201212
00282   11.03  0.15 K20CH 357.13580  296.94427  144.88422    9.03645  0.0809651  0.27549565   2.3391580  0 MPO593092  3244  47 1898-2021 0.42 M-v 3Ek Pan        0000    (282) Clorinde           20210112
00283    8.66  0.15 K20CH  61.80542   55.33063  303.90121    7.98948  0.1442624  0.18512214   3.0490448  0 MPO593092  3307  58 1894-2021 0.46 M-v 3Ek Pan        0000    (283) Emma               20210113
00284   10.24  0.15 K20CH  75.52805   57.94984  233.69882    8.05608  0.2220132  0.27215429   2.3582649  0 MPO593092  3438  47 1893-2021 0.40 M-v 3Ek Pan        0000    (284) Amalia             20210112
00285   10.85  0.15 K20CH  68.56405   14.27964  311.22873   17.61641  0.2046300  0.18180009   3.0860763  0 MPO593092  2736  30 1911-2021 0.42 M-v 3Ek Pan        0000    (285) Regina             20210113
00286    9.10  0.15 K20CH 329.55578  209.38593  148.92766   17.93690  0.0259137  0.17241156   3.1971165  0 MPO593092  3296  45 1898-2020 0.43 M-v 3Ek Pan        0000    (286) Iclea              20201222
00287    8.24  0.15 K20CH 204.45581  119.27652  142.32043   10.03523  0.0229006  0.27302358   2.3532565  0 MPO593093  3564  68 1896-2021 0.50 M-v 3Ek Pan        0000    (287) Nephthys           20210111
00288    9.81  0.15 K20CH 160.19588   84.64025  120.10527    4.33838  0.2058495  0.21507309   2.7589595  0 MPO593093  3427  67 1891-2021 0.43 M-v 3Ek Pan        0000    (288) Glauke             20210112
00289    9.55  0.15 K20CH  66.12173  190.48185  181.93887    6.67880  0.2014360  0.20203786   2.8763885  0 MPO593093  3560  56 1902-2021 0.44 M-v 3Ek Pan        0000    (289) Nenetta            20210113
00290   12.04  0.15 K20CH 252.57433  105.45089   10.33825   22.33313  0.2575611  0.27582001   2.3373237  0 MPO593093  2693  29 1915-2021 0.57 M-v 3Ek Pan        0000    (290) Bruna              20210112
00291   11.55  0.15 K20CH 230.66215  332.25497  161.58869    1.85700  0.0927355  0.29762046   2.2217449  0 MPO593093  3921  48 1891-2021 0.38 M-v 3Ek Pan        0000    (291) Alice              20210113
00292   10.00  0.15 K20CH  60.26168  285.50226   43.48942   14.88727  0.0331342  0.24504767   2.5291174  0 MPO593093  3442  45 1891-2021 0.50 M-v 3Ek Pan        0000    (292) Ludovica           20210112
00293   10.24  0.15 K20CH  73.93355   86.81520   61.29894   15.58260  0.1057323  0.20378491   2.8599254  0 MPO593093  2806  36 1909-2020 0.39 M-v 3Ek Pan        0000    (293) Brasilia           20200813
00294   10.23  0.15 K20CH 135.32289  186.11134  135.70893    6.26497  0.2332359  0.17577075   3.1562518  0 MPO593093  3742  48 1906-2021 0.44 M-v 3Ek Pan        0000    (294) Felicia            20210113
